EUTELSAT 172A (GE-23)   
1 28924U 05052A   18306.84952573 -.00000006  00000-0  00000-0 0  9995
2 28924   0.0694   4.5149 0005886 219.7944 297.6114  1.00270157 24438
ECHOSTAR 10             
1 28935U 06003A   18306.86461755 -.00000070  00000-0  00000-0 0  9994
2 28935   0.0120 127.8776 0001640 108.6922   6.5760  1.00271689 46579
HIMAWARI-7 (MTSAT-2)    
1 28937U 06004A   18306.91556334 -.00000258  00000-0  00000-0 0  9999
2 28937   0.0304 261.5102 0003603 318.4779 296.8158  1.00272401 46574
SPAINSAT                
1 28945U 06007A   18306.96597784 -.00000231  00000-0  00000+0 0  9990
2 28945   0.0212 227.7456 0005752 356.9326 135.3010  1.00272418 46324
EUTELSAT HOT BIRD 13E   
1 28946U 06007B   18306.84694236  .00000072  00000-0  00000-0 0  9991
2 28946   0.0518 246.1067 0006825 335.1676 138.6997  1.00271483 46394
JCSAT-5A                
1 29045U 06010A   18306.98474146 -.00000343  00000-0  00000+0 0  9998
2 29045   0.0310  83.8989 0001934 108.5419 336.3393  1.00272048 46033
ASTRA 1KR               
1 29055U 06012A   18306.89043937  .00000105  00000-0  00000-0 0  9997
2 29055   0.0580 271.0164 0005541 321.9782 148.9011  1.00272824 17822
GOES 13                 
1 29155U 06018A   18306.05192854 -.00000298  00000-0  00000-0 0  9999
2 29155   0.1464 106.2161 0007140 315.0690 298.8138  1.00276991 15462
EUTELSAT 113 WEST A     
1 29162U 06020A   18307.19601594 -.00000053  00000-0  00000+0 0  9990
2 29162   0.0169 147.4551 0003008  84.1406 128.4026  1.00272204 45560
THAICOM 5               
1 29163U 06020B   18307.51993875 -.00000137  00000-0  00000+0 0  9996
2 29163   0.0358 101.6859 0006219 152.2108  54.5327  1.00271608 45624
GALAXY 16 (G-16)        
1 29236U 06023A   18307.18734319 -.00000142  00000-0  00000+0 0  9995
2 29236   0.0149 250.5300 0002680 338.2287 142.0697  1.00269145 45367
EUTELSAT HOT BIRD 13B   
1 29270U 06032A   18307.47688278  .00000071  00000-0  00000+0 0  9997
2 29270   0.0766 336.5196 0003160 277.0983 333.7618  1.00273170 44954
JCSAT-3A                
1 29272U 06033A   18307.48648205 -.00000360  00000-0  00000+0 0  9999
2 29272   0.0164 258.9926 0001798 314.0925 132.7668  1.00272162 44850
SYRACUSE 3B             
1 29273U 06033B   18307.42966153 -.00000059  00000-0  00000+0 0  9994
2 29273   0.0143  71.9820 0003406 158.3780 321.7795  1.00271111 44843
KOREASAT 5 (MUGUNGWHA 5)
1 29349U 06034A   18307.15425069 -.00000373  00000-0  00000+0 0  9994
2 29349   0.0195 255.4445 0001190 311.5721   3.9276  1.00270254 44729
DIRECTV 9S              
1 29494U 06043A   18307.50815987 -.00000130  00000-0  00000+0 0  9997
2 29494   0.0161 242.7603 0002811 343.3009 258.5144  1.00271960 44201
OPTUS D1                
1 29495U 06043B   18306.84647247 -.00000126  00000-0  00000+0 0  9991
2 29495   0.0195 115.2297 0003347 107.3595 284.1981  1.00269609 44239
XM-4 (BLUES)            
1 29520U 06049A   18307.43797884 -.00000038  00000-0  00000+0 0  9997
2 29520   0.0097 253.4577 0000377 153.9522  37.6315  1.00269043 44090
BADR-4                  
1 29526U 06051A   18306.89183515  .00000129  00000-0  00000-0 0  9996
2 29526   0.0587 324.5419 0004253 299.3759 125.2853  1.00268828 23378
FENGYUN 2D              
1 29640U 06053A   18306.83126932 -.00000373  00000-0  10000-3 0  9995
2 29640   5.3681  61.9296 0006133 307.0399  96.1495  1.00271491 43650
WILDBLUE-1              
1 29643U 06054A   18306.86435583 -.00000064  00000-0  00000-0 0  9990
2 29643   0.0107 244.6738 0001736 344.6502  12.7673  1.00270203 25894
AMC-18                  
1 29644U 06054B   18306.71535681  .00000089  00000-0  00000+0 0  9990
2 29644   0.0358 282.0631 0000760 266.7240 331.7025  1.00268881 43647
MEASAT-3                
1 29648U 06056A   18306.90483332 -.00000258  00000-0  00000-0 0  9992
2 29648   0.0545 114.1283 0002574  80.2355 264.9981  1.00272912 22553
INSAT-4B                
1 30793U 07007A   18307.55496229 -.00000370  00000-0  00000+0 0  9997
2 30793   0.0831  96.0348 0003582 127.4154 130.4595  1.00269907 42667
SKYNET 5A               
1 30794U 07007B   18307.23688139 -.00000287  00000-0  00000+0 0  9993
2 30794   0.0701   3.1891 0003459 214.6190   5.1344  1.00273956 42746
ANIK F3                 
1 31102U 07009A   18307.15078147 -.00000016  00000-0  00000+0 0  9992
2 31102   0.0122 241.6698 0001584 353.4003 102.8468  1.00269946 42435
ASTRA 1L                
1 31306U 07016A   18307.16528774  .00000104  00000-0  00000+0 0  9990
2 31306   0.0703 297.3156 0004542 324.4652 219.3306  1.00272993 42136
GALAXY 17 (G-17)        
1 31307U 07016B   18307.44277683 -.00000190  00000-0  00000+0 0  9998
2 31307   0.0444  17.5684 0003290 214.5063 239.0033  1.00272119 42171
ZHONGXING-6B            
1 31800U 07031A   18307.48395222 -.00000377  00000-0  00000+0 0  9994
2 31800   0.0153 265.0228 0003364 324.2058 103.1995  1.00268158 41563
DIRECTV 10              
1 31862U 07032A   18307.16795353 -.00000120  00000-0  00000+0 0  9993
2 31862   0.0184 273.0670 0000788 335.9334 110.9911  1.00280166 41509
SPACEWAY 3              
1 32018U 07036A   18307.19381060 -.00000167  00000-0  00000+0 0  9991
2 32018   0.0169 121.8681 0000263 176.9980  78.3826  1.00271089 41221
BSAT-3A                 
1 32019U 07036B   18306.57861231 -.00000366  00000-0  00000-0 0  9998
2 32019   0.0384 224.5180 0004919   4.0444 131.4215  1.00269962 22605
INSAT-4CR               
1 32050U 07037A   18307.54222584  .00000110  00000-0  00000+0 0  9999
2 32050   0.3043  97.5579 0004328 138.1599  50.1185  1.00272169 40942
OPTUS D2                
1 32252U 07044A   18307.13225744 -.00000199  00000-0  00000+0 0  9995
2 32252   0.0201 121.4426 0003480 100.8787  19.6211  1.00271836 40535
INTELSAT 11 (IS-11)     
1 32253U 07044B   18307.49077354 -.00000284  00000-0  00000+0 0  9992
2 32253   0.0149 254.6143 0001487 352.5352 289.2666  1.00272185 40628
STAR ONE C1             
1 32293U 07056A   18307.06306087 -.00000292  00000-0  00000+0 0  9999
2 32293   0.0131 249.6930 0002747 346.0698 124.2112  1.00269954 40200
SKYNET 5B               
1 32294U 07056B   18306.89166069  .00000126  00000-0  00000-0 0  9990
2 32294   0.0750 357.4082 0003952 219.6002 171.2441  1.00270008 40284
ASTRA 4A (SIRIUS 4)     
1 32299U 07057A   18306.88756059  .00000017  00000-0  00000-0 0  9998
2 32299   0.0073  91.4521 0002845 133.9961 141.0047  1.00271028 23777
HORIZONS-2              
1 32388U 07063B   18307.11299545 -.00000198  00000-0  00000+0 0  9993
2 32388   0.0008  10.0214 0002387 229.8202 288.0315  1.00271856 39972
THURAYA-3               
1 32404U 08001A   18307.47126233 -.00000316  00000-0  00000+0 0  9999
2 32404   3.8645   0.0645 0004907 215.1836  95.6081  1.00271746 39629
EXPRESS-AM33            
1 32478U 08003A   18304.84702050 -.00000292  00000-0  00000+0 0  9990
2 32478   0.0087 304.4354 0001532 328.1315 168.9534  1.00269149 39682
THOR 5                  
1 32487U 08006A   18306.88642653 -.00000024  00000-0  00000-0 0  9995
2 32487   0.0243 254.5141 0002466 343.6999 122.2770  1.00272178 39391
KIZUNA (WINDS)          
1 32500U 08007A   18306.91512716 -.00000272  00000-0  00000-0 0  9997
2 32500   1.9121  87.2430 0002094 141.1838 286.1789  1.00272699 38997
AMC-14                  
1 32708U 08011A   18306.49563380  .00000086  00000-0  00000-0 0  9990
2 32708  19.9987  55.5119 0034492 359.5913 183.1038  1.00276844 40244
DIRECTV 11              
1 32729U 08013A   18307.44111934 -.00000141  00000-0  00000+0 0  9997
2 32729   0.0108 137.5678 0000163 157.5559 167.1715  1.00271582 39037
ICO G1                  
1 32763U 08016A   18307.46832369 -.00000186  00000-0  00000+0 0  9991
2 32763   3.6723   2.2120 0002440 225.6520 250.5833  1.00271746 38569
VINASAT-1               
1 32767U 08018A   18306.51751797 -.00000343  00000-0  00000+0 0  9992
2 32767   0.0335  50.2081 0001552 190.7412 119.0614  1.00272887 38694
STAR ONE C2             
1 32768U 08018B   18307.07692356 -.00000281  00000-0  00000+0 0  9991
2 32768   0.0598 104.7761 0002794  98.1305 157.1064  1.00271823 38643
TIANLIAN 1-01           
1 32779U 08019A   18305.52271566 -.00000149  00000-0  10000-3 0  9996
2 32779   2.8719  73.8452 0033959 232.6610   2.4148  1.00270416 38545
AMOS-3                  
1 32794U 08022A   18307.31649978 -.00000051  00000-0  00000+0 0  9999
2 32794   0.0339 140.2804 0001111 102.0300 270.0441  1.00270635 38543
GALAXY 18 (G-18)        
1 32951U 08024A   18307.22376192  .00000009  00000-0  00000+0 0  9993
2 32951   0.0136 253.8361 0002861 326.4740 139.6940  1.00271853 38182
CHINASAT 9 (ZX 9)       
1 33051U 08028A   18307.51507682 -.00000263  00000-0  00000+0 0  9994
2 33051   0.0143 277.9007 0004231 313.3543  89.1051  1.00269741 38102
SKYNET 5C               
1 33055U 08030A   18306.88302433 -.00000155  00000-0  00000-0 0  9998
2 33055   0.0638  14.9547 0004520 211.2113 116.0338  1.00271765 38043
TURKSAT 3A              
1 33056U 08030B   18306.89497566  .00000130  00000-0  00000-0 0  9994
2 33056   0.0818  87.2442 0003498 112.6505 206.4098  1.00271828 24449
INTELSAT 25 (IS-25)     
1 33153U 08034A   18306.97026373 -.00000239  00000-0  00000+0 0  9999
2 33153   0.0142 246.0262 0002569 359.2448 114.7280  1.00271585 37735
BADR-6                  
1 33154U 08034B   18307.40952188  .00000129  00000-0  00000+0 0  9998
2 33154   0.0649  53.3843 0001770 183.4770 339.1525  1.00272561 37842
ECHOSTAR 11             
1 33207U 08035A   18306.19044398 -.00000071  00000-0  00000+0 0  9995
2 33207   0.0209 249.5088 0002746 343.8207 126.6452  1.00269386 37742
SUPERBIRD-C2            
1 33274U 08038A   18307.47827223 -.00000267  00000-0  00000+0 0  9997
2 33274   0.0124 251.2600 0001757 358.1901 109.3794  1.00270152 37484
AMC-21                  
1 33275U 08038B   18307.18313543  .00000020  00000-0  00000+0 0  9997
2 33275   0.0300  30.2782 0002269 197.1883 115.9775  1.00272229 37564
